{
  "type": "FeatureCollection",
  "features": [
    {
      "type": "Feature",
      "properties": {
        "norad_id": 43602,
        "name": "BEIDOU-3 M12 (C26)",
        "group": "beidou",
        "lat": 50.40809429736525,
        "lon": -53.86981951488576,
        "alt_km": 21512.120380782893,
        "timestamp": "2025-12-22T22:44:21.240813+00:00",
        "meta_object_name": "BEIDOU-3 M12 (C26)",
        "meta_object_id": "2018-067A",
        "meta_epoch": "2025-12-19T13:33:24.239232",
        "meta_mean_motion": 1.86227856,
        "meta_eccentricity": 0.00092481,
        "meta_inclination": 54.1835,
        "meta_ra_of_asc_node": 187.1314,
        "meta_arg_of_pericenter": 41.3287,
        "meta_mean_anomaly": 318.7989,
        "meta_ephemeris_type": 0,
        "meta_classification_type": "U",
        "meta_norad_cat_id": 43602,
        "meta_element_set_no": 999,
        "meta_rev_at_epoch": 4977,
        "meta_bstar": 0,
        "meta_mean_motion_dot": 1.01e-06,
        "meta_mean_motion_ddot": 0,
        "tle_line1": "1 43602U 18067A   25353.56486388  .00000101  00000+0  00000+0 0  9993",
        "tle_line2": "2 43602  54.1835 187.1314 0009248  41.3287 318.7989  1.86227856 49773"
      },
      "geometry": {
        "type": "Point",
        "coordinates": [
          -53.86981951488576,
          50.40809429736525
        ]
      }
    },
    {
      "type": "Feature",
      "properties": {
        "norad_id": 43603,
        "name": "BEIDOU-3 M11 (C25)",
        "group": "beidou",
        "lat": 14.251992154207494,
        "lon": -162.43913051876828,
        "alt_km": 21511.961475921762,
        "timestamp": "2025-12-22T22:44:21.240824+00:00",
        "meta_object_name": "BEIDOU-3 M11 (C25)",
        "meta_object_id": "2018-067B",
        "meta_epoch": "2025-12-21T20:19:59.008800",
        "meta_mean_motion": 1.86227367,
        "meta_eccentricity": 0.00056442,
        "meta_inclination": 54.1806,
        "meta_ra_of_asc_node": 187.018,
        "meta_arg_of_pericenter": 37.5016,
        "meta_mean_anomaly": 322.5818,
        "meta_ephemeris_type": 0,
        "meta_classification_type": "U",
        "meta_norad_cat_id": 43603,
        "meta_element_set_no": 999,
        "meta_rev_at_epoch": 4984,
        "meta_bstar": 0,
        "meta_mean_motion_dot": 9.4e-07,
        "meta_mean_motion_ddot": 0,
        "tle_line1": "1 43603U 18067B   25355.84721075  .00000094  00000+0  00000+0 0  9993",
        "tle_line2": "2 43603  54.1806 187.0180 0005644  37.5016 322.5818  1.86227367 49844"
      },
      "geometry": {
        "type": "Point",
        "coordinates": [
          -162.43913051876828,
          14.251992154207494
        ]
      }
    },
    {
      "type": "Feature",
      "properties": {
        "norad_id": 43622,
        "name": "BEIDOU-3 M13 (C32)",
        "group": "beidou",
        "lat": 37.46978426159412,
        "lon": 99.00474019370662,
        "alt_km": 21529.44110208947,
        "timestamp": "2025-12-22T22:44:21.240836+00:00",
        "meta_object_name": "BEIDOU-3 M13 (C32)",
        "meta_object_id": "2018-072A",
        "meta_epoch": "2025-12-22T08:10:31.412640",
        "meta_mean_motion": 1.86231166,
        "meta_eccentricity": 0.00064111,
        "meta_inclination": 56.4667,
        "meta_ra_of_asc_node": 68.5024,
        "meta_arg_of_pericenter": 297.4685,
        "meta_mean_anomaly": 62.5173,
        "meta_ephemeris_type": 0,
        "meta_classification_type": "U",
        "meta_norad_cat_id": 43622,
        "meta_element_set_no": 999,
        "meta_rev_at_epoch": 4936,
        "meta_bstar": 0,
        "meta_mean_motion_dot": -2.9e-07,
        "meta_mean_motion_ddot": 0,
        "tle_line1": "1 43622U 18072A   25356.34064135 -.00000029  00000+0  00000+0 0  9992",
        "tle_line2": "2 43622  56.4667  68.5024 0006411 297.4685  62.5173  1.86231166 49361"
      },
      "geometry": {
        "type": "Point",
        "coordinates": [
          99.00474019370662,
          37.46978426159412
        ]
      }
    },
    {
      "type": "Feature",
      "properties": {
        "norad_id": 43623,
        "name": "BEIDOU-3 M14 (C33)",
        "group": "beidou",
        "lat": 34.60296892459105,
        "lon": -138.68841518969322,
        "alt_km": 21533.655302107407,
        "timestamp": "2025-12-22T22:44:21.240847+00:00",
        "meta_object_name": "BEIDOU-3 M14 (C33)",
        "meta_object_id": "2018-072B",
        "meta_epoch": "2025-12-22T04:56:47.689728",
        "meta_mean_motion": 1.86231163,
        "meta_eccentricity": 0.00035757,
        "meta_inclination": 56.4687,
        "meta_ra_of_asc_node": 68.5008,
        "meta_arg_of_pericenter": 327.1514,
        "meta_mean_anomaly": 32.8768,
        "meta_ephemeris_type": 0,
        "meta_classification_type": "U",
        "meta_norad_cat_id": 43623,
        "meta_element_set_no": 999,
        "meta_rev_at_epoch": 4935,
        "meta_bstar": 0,
        "meta_mean_motion_dot": -3e-07,
        "meta_mean_motion_ddot": 0,
        "tle_line1": "1 43623U 18072B   25356.20610752 -.00000030  00000+0  00000+0 0  9992",
        "tle_line2": "2 43623  56.4687  68.5008 0003575 327.1514  32.8768  1.86231163 49352"
      },
      "geometry": {
        "type": "Point",
        "coordinates": [
          -138.68841518969322,
          34.60296892459105
        ]
      }
    },
    {
      "type": "Feature",
      "properties": {
        "norad_id": 43647,
        "name": "BEIDOU-3 M16 (C35)",
        "group": "beidou",
        "lat": 24.99999725554874,
        "lon": -34.25269663109654,
        "alt_km": 21504.66847075917,
        "timestamp": "2025-12-22T22:44:21.240858+00:00",
        "meta_object_name": "BEIDOU-3 M16 (C35)",
        "meta_object_id": "2018-078A",
        "meta_epoch": "2025-12-21T06:57:26.662752",
        "meta_mean_motion": 1.86232383,
        "meta_eccentricity": 0.00073912,
        "meta_inclination": 54.254,
        "meta_ra_of_asc_node": 306.2225,
        "meta_arg_of_pericenter": 20.1589,
        "meta_mean_anomaly": 339.8673,
        "meta_ephemeris_type": 0,
        "meta_classification_type": "U",
        "meta_norad_cat_id": 43647,
        "meta_element_set_no": 999,
        "meta_rev_at_epoch": 4884,
        "meta_bstar": 0,
        "meta_mean_motion_dot": -6.2e-07,
        "meta_mean_motion_ddot": 0,
        "tle_line1": "1 43647U 18078A   25355.28989193 -.00000062  00000+0  00000+0 0  9994",
        "tle_line2": "2 43647  54.2540 306.2225 0007391  20.1589 339.8673  1.86232383 48840"
      },
      "geometry": {
        "type": "Point",
        "coordinates": [
          -34.25269663109654,
          24.99999725554874
        ]
      }
    },
    {
      "type": "Feature",
      "properties": {
        "norad_id": 43648,
        "name": "BEIDOU-3 M15 (C34)",
        "group": "beidou",
        "lat": -41.88013112058776,
        "lon": -94.03647008330675,
        "alt_km": 21529.880368313894,
        "timestamp": "2025-12-22T22:44:21.240869+00:00",
        "meta_object_name": "BEIDOU-3 M15 (C34)",
        "meta_object_id": "2018-078B",
        "meta_epoch": "2025-12-21T10:03:31.527360",
        "meta_mean_motion": 1.86232375,
        "meta_eccentricity": 0.0004048,
        "meta_inclination": 54.2499,
        "meta_ra_of_asc_node": 306.2186,
        "meta_arg_of_pericenter": 19.7002,
        "meta_mean_anomaly": 340.3131,
        "meta_ephemeris_type": 0,
        "meta_classification_type": "U",
        "meta_norad_cat_id": 43648,
        "meta_element_set_no": 999,
        "meta_rev_at_epoch": 4886,
        "meta_bstar": 0,
        "meta_mean_motion_dot": -6.1e-07,
        "meta_mean_motion_ddot": 0,
        "tle_line1": "1 43648U 18078B   25355.41911490 -.00000061  00000+0  00000+0 0  9994",
        "tle_line2": "2 43648  54.2499 306.2186 0004048  19.7002 340.3131  1.86232375 48869"
      },
      "geometry": {
        "type": "Point",
        "coordinates": [
          -94.03647008330675,
          -41.88013112058776
        ]
      }
    },
    {
      "type": "Feature",
      "properties": {
        "norad_id": 43683,
        "name": "BEIDOU-3 G1 (C59)",
        "group": "beidou",
        "lat": 2.4614613049757064,
        "lon": -147.1461801456572,
        "alt_km": 35784.276297607845,
        "timestamp": "2025-12-22T22:44:21.240881+00:00",
        "meta_object_name": "BEIDOU-3 G1 (C59)",
        "meta_object_id": "2018-085A",
        "meta_epoch": "2025-12-22T15:14:38.663808",
        "meta_mean_motion": 1.00267649,
        "meta_eccentricity": 0.00015098,
        "meta_inclination": 2.6311,
        "meta_ra_of_asc_node": 102.6759,
        "meta_arg_of_pericenter": 45.3864,
        "meta_mean_anomaly": 312.0279,
        "meta_ephemeris_type": 0,
        "meta_classification_type": "U",
        "meta_norad_cat_id": 43683,
        "meta_element_set_no": 999,
        "meta_rev_at_epoch": 2628,
        "meta_bstar": 0,
        "meta_mean_motion_dot": -2.58e-06,
        "meta_mean_motion_ddot": 0,
        "tle_line1": "1 43683U 18085A   25356.63516972 -.00000258  00000+0  00000+0 0  9990",
        "tle_line2": "2 43683   2.6311 102.6759 0001509  45.3864 312.0279  1.00267649 26281"
      },
      "geometry": {
        "type": "Point",
        "coordinates": [
          -147.1461801456572,
          2.4614613049757064
        ]
      }
    }
  ]
}